STARLINK-6281           
1 56410U 23061AN  25144.49427653  .00000230  00000+0  32075-4 0  9999
2 56410  43.0041 315.7449 0001186 272.7515  87.3192 15.02533012113409
STARLINK-6279           
1 56411U 23061AP  25144.77239706 -.00001239  00000+0 -76652-4 0  9992
2 56411  43.0029 314.3931 0001121 275.8882  84.1832 15.02545568113738
STARLINK-6278           
1 56412U 23061AQ  25144.82111755 -.00000222  00000+0 -13995-5 0  9995
2 56412  43.0037 313.8926 0001072 261.5574  98.5147 15.02531531113745
STARLINK-6258           
1 56413U 23061AR  25143.89930654 -.00000053  00000+0  11180-4 0  9993
2 56413  43.0043 319.0196 0001606 262.1099  97.9561 15.02533316113311
STARLINK-5136           
1 56414U 23061AS  25143.81950491  .00000444  00000+0  47934-4 0  9996
2 56414  43.0045 319.2820 0001120 267.9357  92.1357 15.02537581113308
STARLINK-6268           
1 56415U 23061AT  25144.49205613  .00000468  00000+0  49733-4 0  9996
2 56415  43.0045 315.7297 0001361 275.3699  84.6988 15.02535262113408
STARLINK-6260           
1 56416U 23061AU  25144.86688053 -.00000199  00000+0  37536-6 0  9993
2 56416  43.0038 301.2340 0001086 275.0893  84.9826 15.02535558113892
STARLINK-6261           
1 56417U 23061AV  25144.48535946  .00003585  00000+0  28010-3 0  9999
2 56417  43.0040 315.6775 0001041 261.2896  98.7828 15.02565212113400
STARLINK-5356           
1 56418U 23061AW  25144.45469354 -.00001448  00000+0 -92143-4 0  9993
2 56418  42.9999 303.3031 0000210  39.5490 320.5367 15.02530410113545
STARLINK-5350           
1 56419U 23061AX  25144.81445541  .00000232  00000+0  32230-4 0  9995
2 56419  43.0043 313.8463 0001243 264.5250  95.5451 15.02535184113742
STARLINK-6272           
1 56420U 23061AY  25144.45136133  .00000363  00000+0  41946-4 0  9990
2 56420  43.0045 303.2759 0001550 265.2795  94.7871 15.02534895113543
STARLINK-6270           
1 56421U 23061AZ  25144.80372888  .00000912  00000+0  82577-4 0  9994
2 56421  43.0042 301.6171 0001253 272.7568  87.3131 15.02536578113886
STARLINK-6236           
1 56422U 23061BA  25144.44470194  .00000704  00000+0  67154-4 0  9997
2 56422  43.0038 303.2262 0001308 269.0480  91.0212 15.02536989113545
STARLINK-6239           
1 56423U 23061BB  25144.44803744 -.00001827  00000+0 -12017-3 0  9995
2 56423  43.0036 303.2506 0000836 264.7464  95.3282 15.02544391113544
