[
  {
    "OBJECT_NAME": "STARLINK-6281",
    "OBJECT_ID": "2023-061AN",
    "EPOCH": "2025-05-24T11:51:45.492192",
    "MEAN_MOTION": 15.02533012,
    "ECCENTRICITY": 0.0001186,
    "INCLINATION": 43.0041,
    "RA_OF_ASC_NODE": 315.7449,
    "ARG_OF_PERICENTER": 272.7515,
    "MEAN_ANOMALY": 87.3192,
    "EPHEMERIS_TYPE": 0,
    "CLASSIFICATION_TYPE": "U",
    "NORAD_CAT_ID": 56410,
    "ELEMENT_SET_NO": 999,
    "REV_AT_EPOCH": 11340,
    "BSTAR": 3.2075e-05,
    "MEAN_MOTION_DOT": 2.3e-06,
    "MEAN_MOTION_DDOT": 0
  },
  {
    "OBJECT_NAME": "STARLINK-6279",
    "OBJECT_ID": "2023-061AP",
    "EPOCH": "2025-05-24T18:32:15.105984",
    "MEAN_MOTION": 15.02545568,
    "ECCENTRICITY": 0.0001121,
    "INCLINATION": 43.0029,
    "RA_OF_ASC_NODE": 314.3931,
    "ARG_OF_PERICENTER": 275.8882,
    "MEAN_ANOMALY": 84.1832,
    "EPHEMERIS_TYPE": 0,
    "CLASSIFICATION_TYPE": "U",
    "NORAD_CAT_ID": 56411,
    "ELEMENT_SET_NO": 999,
    "REV_AT_EPOCH": 11373,
    "BSTAR": -7.6652e-05,
    "MEAN_MOTION_DOT": -1.239e-05,
    "MEAN_MOTION_DDOT": 0
  },
  {
    "OBJECT_NAME": "STARLINK-6278",
    "OBJECT_ID": "2023-061AQ",
    "EPOCH": "2025-05-24T19:42:24.556320",
    "MEAN_MOTION": 15.02531531,
    "ECCENTRICITY": 0.0001072,
    "INCLINATION": 43.0037,
    "RA_OF_ASC_NODE": 313.8926,
    "ARG_OF_PERICENTER": 261.5574,
    "MEAN_ANOMALY": 98.5147,
    "EPHEMERIS_TYPE": 0,
    "CLASSIFICATION_TYPE": "U",
    "NORAD_CAT_ID": 56412,
    "ELEMENT_SET_NO": 999,
    "REV_AT_EPOCH": 11374,
    "BSTAR": -1.3995e-06,
    "MEAN_MOTION_DOT": -2.22e-06,
    "MEAN_MOTION_DDOT": 0
  },
  {
    "OBJECT_NAME": "STARLINK-6258",
    "OBJECT_ID": "2023-061AR",
    "EPOCH": "2025-05-23T21:35:00.085056",
    "MEAN_MOTION": 15.02533316,
    "ECCENTRICITY": 0.0001606,
    "INCLINATION": 43.0043,
    "RA_OF_ASC_NODE": 319.0196,
    "ARG_OF_PERICENTER": 262.1099,
    "MEAN_ANOMALY": 97.9561,
    "EPHEMERIS_TYPE": 0,
    "CLASSIFICATION_TYPE": "U",
    "NORAD_CAT_ID": 56413,
    "ELEMENT_SET_NO": 999,
    "REV_AT_EPOCH": 11331,
    "BSTAR": 1.118e-05,
    "MEAN_MOTION_DOT": -5.3e-07,
    "MEAN_MOTION_DDOT": 0
  },
  {
    "OBJECT_NAME": "STARLINK-5136",
    "OBJECT_ID": "2023-061AS",
    "EPOCH": "2025-05-23T19:40:05.224224",
    "MEAN_MOTION": 15.02537581,
    "ECCENTRICITY": 0.000112,
    "INCLINATION": 43.0045,
    "RA_OF_ASC_NODE": 319.282,
    "ARG_OF_PERICENTER": 267.9357,
    "MEAN_ANOMALY": 92.1357,
    "EPHEMERIS_TYPE": 0,
    "CLASSIFICATION_TYPE": "U",
    "NORAD_CAT_ID": 56414,
    "ELEMENT_SET_NO": 999,
    "REV_AT_EPOCH": 11330,
    "BSTAR": 4.7934e-05,
    "MEAN_MOTION_DOT": 4.44e-06,
    "MEAN_MOTION_DDOT": 0
  },
  {
    "OBJECT_NAME": "STARLINK-6268",
    "OBJECT_ID": "2023-061AT",
    "EPOCH": "2025-05-24T11:48:33.649632",
    "MEAN_MOTION": 15.02535262,
    "ECCENTRICITY": 0.0001361,
    "INCLINATION": 43.0045,
    "RA_OF_ASC_NODE": 315.7297,
    "ARG_OF_PERICENTER": 275.3699,
    "MEAN_ANOMALY": 84.6988,
    "EPHEMERIS_TYPE": 0,
    "CLASSIFICATION_TYPE": "U",
    "NORAD_CAT_ID": 56415,
    "ELEMENT_SET_NO": 999,
    "REV_AT_EPOCH": 11340,
    "BSTAR": 4.9733e-05,
    "MEAN_MOTION_DOT": 4.68e-06,
    "MEAN_MOTION_DDOT": 0
  },
  {
    "OBJECT_NAME": "STARLINK-6260",
    "OBJECT_ID": "2023-061AU",
    "EPOCH": "2025-05-24T20:48:18.477792",
    "MEAN_MOTION": 15.02535558,
    "ECCENTRICITY": 0.0001086,
    "INCLINATION": 43.0038,
    "RA_OF_ASC_NODE": 301.234,
    "ARG_OF_PERICENTER": 275.0893,
    "MEAN_ANOMALY": 84.9826,
    "EPHEMERIS_TYPE": 0,
    "CLASSIFICATION_TYPE": "U",
    "NORAD_CAT_ID": 56416,
    "ELEMENT_SET_NO": 999,
    "REV_AT_EPOCH": 11389,
    "BSTAR": 3.7536e-07,
    "MEAN_MOTION_DOT": -1.99e-06,
    "MEAN_MOTION_DDOT": 0
  },
  {
    "OBJECT_NAME": "STARLINK-6261",
    "OBJECT_ID": "2023-061AV",
    "EPOCH": "2025-05-24T11:38:55.057344",
    "MEAN_MOTION": 15.02565212,
    "ECCENTRICITY": 0.0001041,
    "INCLINATION": 43.004,
    "RA_OF_ASC_NODE": 315.6775,
    "ARG_OF_PERICENTER": 261.2896,
    "MEAN_ANOMALY": 98.7828,
    "EPHEMERIS_TYPE": 0,
    "CLASSIFICATION_TYPE": "U",
    "NORAD_CAT_ID": 56417,
    "ELEMENT_SET_NO": 999,
    "REV_AT_EPOCH": 11340,
    "BSTAR": 0.0002801,
    "MEAN_MOTION_DOT": 3.585e-05,
    "MEAN_MOTION_DDOT": 0
  },
  {
    "OBJECT_NAME": "STARLINK-5356",
    "OBJECT_ID": "2023-061AW",
    "EPOCH": "2025-05-24T10:54:45.521856",
    "MEAN_MOTION": 15.0253041,
    "ECCENTRICITY": 2.1e-05,
    "INCLINATION": 42.9999,
    "RA_OF_ASC_NODE": 303.3031,
    "ARG_OF_PERICENTER": 39.549,
    "MEAN_ANOMALY": 320.5367,
    "EPHEMERIS_TYPE": 0,
    "CLASSIFICATION_TYPE": "U",
    "NORAD_CAT_ID": 56418,
    "ELEMENT_SET_NO": 999,
    "REV_AT_EPOCH": 11354,
    "BSTAR": -9.2143e-05,
    "MEAN_MOTION_DOT": -1.448e-05,
    "MEAN_MOTION_DDOT": 0
  },
  {
    "OBJECT_NAME": "STARLINK-5350",
    "OBJECT_ID": "2023-061AX",
    "EPOCH": "2025-05-24T19:32:48.947424",
    "MEAN_MOTION": 15.02535184,
    "ECCENTRICITY": 0.0001243,
    "INCLINATION": 43.0043,
    "RA_OF_ASC_NODE": 313.8463,
    "ARG_OF_PERICENTER": 264.525,
    "MEAN_ANOMALY": 95.5451,
    "EPHEMERIS_TYPE": 0,
    "CLASSIFICATION_TYPE": "U",
    "NORAD_CAT_ID": 56419,
    "ELEMENT_SET_NO": 999,
    "REV_AT_EPOCH": 11374,
    "BSTAR": 3.223e-05,
    "MEAN_MOTION_DOT": 2.32e-06,
    "MEAN_MOTION_DDOT": 0
  },
  {
    "OBJECT_NAME": "STARLINK-6272",
    "OBJECT_ID": "2023-061AY",
    "EPOCH": "2025-05-24T10:49:57.618912",
    "MEAN_MOTION": 15.02534895,
    "ECCENTRICITY": 0.000155,
    "INCLINATION": 43.0045,
    "RA_OF_ASC_NODE": 303.2759,
    "ARG_OF_PERICENTER": 265.2795,
    "MEAN_ANOMALY": 94.7871,
    "EPHEMERIS_TYPE": 0,
    "CLASSIFICATION_TYPE": "U",
    "NORAD_CAT_ID": 56420,
    "ELEMENT_SET_NO": 999,
    "REV_AT_EPOCH": 11354,
    "BSTAR": 4.1946e-05,
    "MEAN_MOTION_DOT": 3.63e-06,
    "MEAN_MOTION_DDOT": 0
  },
  {
    "OBJECT_NAME": "STARLINK-6270",
    "OBJECT_ID": "2023-061AZ",
    "EPOCH": "2025-05-24T19:17:22.175232",
    "MEAN_MOTION": 15.02536578,
    "ECCENTRICITY": 0.0001253,
    "INCLINATION": 43.0042,
    "RA_OF_ASC_NODE": 301.6171,
    "ARG_OF_PERICENTER": 272.7568,
    "MEAN_ANOMALY": 87.3131,
    "EPHEMERIS_TYPE": 0,
    "CLASSIFICATION_TYPE": "U",
    "NORAD_CAT_ID": 56421,
    "ELEMENT_SET_NO": 999,
    "REV_AT_EPOCH": 11388,
    "BSTAR": 8.2577e-05,
    "MEAN_MOTION_DOT": 9.12e-06,
    "MEAN_MOTION_DDOT": 0
  },
  {
    "OBJECT_NAME": "STARLINK-6236",
    "OBJECT_ID": "2023-061BA",
    "EPOCH": "2025-05-24T10:40:22.247616",
    "MEAN_MOTION": 15.02536989,
    "ECCENTRICITY": 0.0001308,
    "INCLINATION": 43.0038,
    "RA_OF_ASC_NODE": 303.2262,
    "ARG_OF_PERICENTER": 269.048,
    "MEAN_ANOMALY": 91.0212,
    "EPHEMERIS_TYPE": 0,
    "CLASSIFICATION_TYPE": "U",
    "NORAD_CAT_ID": 56422,
    "ELEMENT_SET_NO": 999,
    "REV_AT_EPOCH": 11354,
    "BSTAR": 6.7154e-05,
    "MEAN_MOTION_DOT": 7.04e-06,
    "MEAN_MOTION_DDOT": 0
  },
  {
    "OBJECT_NAME": "STARLINK-6239",
    "OBJECT_ID": "2023-061BB",
    "EPOCH": "2025-05-24T10:45:10.434816",
    "MEAN_MOTION": 15.02544391,
    "ECCENTRICITY": 8.36e-05,
    "INCLINATION": 43.0036,
    "RA_OF_ASC_NODE": 303.2506,
    "ARG_OF_PERICENTER": 264.7464,
    "MEAN_ANOMALY": 95.3282,
    "EPHEMERIS_TYPE": 0,
    "CLASSIFICATION_TYPE": "U",
    "NORAD_CAT_ID": 56423,
    "ELEMENT_SET_NO": 999,
    "REV_AT_EPOCH": 11354,
    "BSTAR": -0.00012017,
    "MEAN_MOTION_DOT": -1.827e-05,
    "MEAN_MOTION_DDOT": 0
  }
]